ESEO                    
1 43792U 18099AL  26068.65529582  .00002831  00000+0  20935-3 0  9991
2 43792  97.4113 110.2601 0011063 317.6000  42.4371 15.03914518396849
STARLINK-35296          
1 65801U 25218L   26068.62538234  .00002745  00000+0  19440-3 0  9991
2 65801  97.6028 292.9464 0002210  80.1390 280.0086 15.05649542 24962
